{"type": "FeatureCollection", "features": [ {"type": "Feature", "properties": {"norad_id": 33825, "name": "COSMOS 2251 DEB", "group": "cosmos-2251-debris", "lat": 2.815436944944028, "lon": 21.946135173936213, "alt_km": 606.5788321074042, "timestamp": "2025-12-16T03:53:27.447951+00:00", "meta": {"OBJECT_NAME": "COSMOS 2251 DEB", "OBJECT_ID": "1993-036BS", "EPOCH": "2025-12-15T08:20:45.827232", "MEAN_MOTION": 14.69787576, "ECCENTRICITY": 0.00846605, "INCLINATION": 73.9856, "RA_OF_ASC_NODE": 22.7196, "ARG_OF_PERICENTER": 349.1442, "MEAN_ANOMALY": 26.3878, "EPHEMERIS_TYPE": 0, "CLASSIFICATION_TYPE": "U", "NORAD_CAT_ID": 33825, "ELEMENT_SET_NO": 999, "REV_AT_EPOCH": 88918, "BSTAR": 0.00053145924, "MEAN_MOTION_DOT": 3.318e-05, "MEAN_MOTION_DDOT": 0}, "tle": {"line1": "1 33825U 93036BS  25349.34775263  .00003318  00000+0  53146-3 0  9998", "line2": "2 33825  73.9856  22.7196 0084660 349.1442  26.3878 14.69787576889187"}}, "geometry": {"type": "Point", "coordinates": [21.946135173936213, 2.815436944944028]}}, {"type": "Feature", "properties": {"norad_id": 33826, "name": "COSMOS 2251 DEB", "group": "cosmos-2251-debris", "lat": 28.27100955359401, "lon": 52.28095554881205, "alt_km": 686.0858359408503, "timestamp": "2025-12-16T03:53:27.447962+00:00", "meta": {"OBJECT_NAME": "COSMOS 2251 DEB", "OBJECT_ID": "1993-036BT", "EPOCH": "2025-12-15T04:51:11.294784", "MEAN_MOTION": 14.51735768, "ECCENTRICITY": 0.00829035, "INCLINATION": 74.0652, "RA_OF_ASC_NODE": 45.2464, "ARG_OF_PERICENTER": 88.796, "MEAN_ANOMALY": 326.9261, "EPHEMERIS_TYPE": 0, "CLASSIFICATION_TYPE": "U", "NORAD_CAT_ID": 33826, "ELEMENT_SET_NO": 999, "REV_AT_EPOCH": 87805, "BSTAR": 0.00059286696, "MEAN_MOTION_DOT": 2.463e-05, "MEAN_MOTION_DDOT": 0}, "tle": {"line1": "1 33826U 93036BT  25349.20221406  .00002463  00000+0  59287-3 0  9991", "line2": "2 33826  74.0652  45.2464 0082903  88.7960 326.9261 14.51735768878057"}}, "geometry": {"type": "Point", "coordinates": [52.28095554881205, 28.27100955359401]}}, {"type": "Feature", "properties": {"norad_id": 33828, "name": "COSMOS 2251 DEB", "group": "cosmos-2251-debris", "lat": -15.195362266855458, "lon": 56.18262974204385, "alt_km": 755.1139795254021, "timestamp": "2025-12-16T03:53:27.447972+00:00", "meta": {"OBJECT_NAME": "COSMOS 2251 DEB", "OBJECT_ID": "1993-036BV", "EPOCH": "2025-12-15T09:15:00.136800", "MEAN_MOTION": 14.44342368, "ECCENTRICITY": 0.00294856, "INCLINATION": 74.0467, "RA_OF_ASC_NODE": 233.1704, "ARG_OF_PERICENTER": 305.7105, "MEAN_ANOMALY": 173.3712, "EPHEMERIS_TYPE": 0, "CLASSIFICATION_TYPE": "U", "NORAD_CAT_ID": 33828, "ELEMENT_SET_NO": 999, "REV_AT_EPOCH": 88351, "BSTAR": 0.00037364954, "MEAN_MOTION_DOT": 1.266e-05, "MEAN_MOTION_DDOT": 0}, "tle": {"line1": "1 33828U 93036BV  25349.38541825  .00001266  00000+0  37365-3 0  9995", "line2": "2 33828  74.0467 233.1704 0029485 305.7105 173.3712 14.44342368883511"}}, "geometry": {"type": "Point", "coordinates": [56.18262974204385, -15.195362266855458]}}, {"type": "Feature", "properties": {"norad_id": 33830, "name": "COSMOS 2251 DEB", "group": "cosmos-2251-debris", "lat": 62.67059410841609, "lon": 10.010757484774937, "alt_km": 651.4080262107027, "timestamp": "2025-12-16T03:53:27.447982+00:00", "meta": {"OBJECT_NAME": "COSMOS 2251 DEB", "OBJECT_ID": "1993-036BX", "EPOCH": "2025-12-15T03:43:07.207392", "MEAN_MOTION": 14.76930955, "ECCENTRICITY": 0.0042445, "INCLINATION": 74.0321, "RA_OF_ASC_NODE": 225.6306, "ARG_OF_PERICENTER": 345.1851, "MEAN_ANOMALY": 173.9686, "EPHEMERIS_TYPE": 0, "CLASSIFICATION_TYPE": "U", "NORAD_CAT_ID": 33830, "ELEMENT_SET_NO": 999, "REV_AT_EPOCH": 89507, "BSTAR": 0.00054513122, "MEAN_MOTION_DOT": 3.861e-05, "MEAN_MOTION_DDOT": 0}, "tle": {"line1": "1 33830U 93036BX  25349.15494453  .00003861  00000+0  54513-3 0  9994", "line2": "2 33830  74.0321 225.6306 0042445 345.1851 173.9686 14.76930955895074"}}, "geometry": {"type": "Point", "coordinates": [10.010757484774937, 62.67059410841609]}}, {"type": "Feature", "properties": {"norad_id": 33832, "name": "COSMOS 2251 DEB", "group": "cosmos-2251-debris", "lat": -35.93461749043813, "lon": -168.5147537678993, "alt_km": 696.4853043408184, "timestamp": "2025-12-16T03:53:27.447992+00:00", "meta": {"OBJECT_NAME": "COSMOS 2251 DEB", "OBJECT_ID": "1993-036BZ", "EPOCH": "2025-12-15T00:48:31.119264", "MEAN_MOTION": 14.60678292, "ECCENTRICITY": 0.002465, "INCLINATION": 74.0541, "RA_OF_ASC_NODE": 205.5976, "ARG_OF_PERICENTER": 236.2021, "MEAN_ANOMALY": 274.6403, "EPHEMERIS_TYPE": 0, "CLASSIFICATION_TYPE": "U", "NORAD_CAT_ID": 33832, "ELEMENT_SET_NO": 999, "REV_AT_EPOCH": 88458, "BSTAR": 0.00084151835, "MEAN_MOTION_DOT": 4.088e-05, "MEAN_MOTION_DDOT": 0}, "tle": {"line1": "1 33832U 93036BZ  25349.03369351  .00004088  00000+0  84152-3 0  9995", "line2": "2 33832  74.0541 205.5976 0024650 236.2021 274.6403 14.60678292884583"}}, "geometry": {"type": "Point", "coordinates": [-168.5147537678993, -35.93461749043813]}}, {"type": "Feature", "properties": {"norad_id": 33835, "name": "COSMOS 2251 DEB", "group": "cosmos-2251-debris", "lat": 2.303147906203518, "lon": -86.0952088402206, "alt_km": 654.8700191260641, "timestamp": "2025-12-16T03:53:27.448003+00:00", "meta": {"OBJECT_NAME": "COSMOS 2251 DEB", "OBJECT_ID": "1993-036CC", "EPOCH": "2025-12-15T07:41:26.308032", "MEAN_MOTION": 14.62281053, "ECCENTRICITY": 0.00544783, "INCLINATION": 74.057, "RA_OF_ASC_NODE": 96.1728, "ARG_OF_PERICENTER": 148.9704, "MEAN_ANOMALY": 279.2421, "EPHEMERIS_TYPE": 0, "CLASSIFICATION_TYPE": "U", "NORAD_CAT_ID": 33835, "ELEMENT_SET_NO": 999, "REV_AT_EPOCH": 88827, "BSTAR": 0.00067518273, "MEAN_MOTION_DOT": 3.45e-05, "MEAN_MOTION_DDOT": 0}, "tle": {"line1": "1 33835U 93036CC  25349.32044338  .00003450  00000+0  67518-3 0  9994", "line2": "2 33835  74.0570  96.1728 0054478 148.9704 279.2421 14.62281053888273"}}, "geometry": {"type": "Point", "coordinates": [-86.0952088402206, 2.303147906203518]}}, {"type": "Feature", "properties": {"norad_id": 33836, "name": "COSMOS 2251 DEB", "group": "cosmos-2251-debris", "lat": 51.63991963425505, "lon": -86.54176622545643, "alt_km": 614.8790642190679, "timestamp": "2025-12-16T03:53:27.448013+00:00", "meta": {"OBJECT_NAME": "COSMOS 2251 DEB", "OBJECT_ID": "1993-036CD", "EPOCH": "2025-12-15T03:33:08.259264", "MEAN_MOTION": 14.79670833, "ECCENTRICITY": 0.00226034, "INCLINATION": 73.9972, "RA_OF_ASC_NODE": 254.1979, "ARG_OF_PERICENTER": 106.4533, "MEAN_ANOMALY": 308.7224, "EPHEMERIS_TYPE": 0, "CLASSIFICATION_TYPE": "U", "NORAD_CAT_ID": 33836, "ELEMENT_SET_NO": 999, "REV_AT_EPOCH": 64124, "BSTAR": 0.00074539515, "MEAN_MOTION_DOT": 5.589e-05, "MEAN_MOTION_DDOT": 0}, "tle": {"line1": "1 33836U 93036CD  25349.14801226  .00005589  00000+0  74540-3 0  9990", "line2": "2 33836  73.9972 254.1979 0022603 106.4533 308.7224 14.79670833641245"}}, "geometry": {"type": "Point", "coordinates": [-86.54176622545643, 51.63991963425505]}}, {"type": "Feature", "properties": {"norad_id": 33837, "name": "COSMOS 2251 DEB", "group": "cosmos-2251-debris", "lat": 36.04790254314434, "lon": 61.199921583213225, "alt_km": 735.9897763432846, "timestamp": "2025-12-16T03:53:27.448024+00:00", "meta": {"OBJECT_NAME": "COSMOS 2251 DEB", "OBJECT_ID": "1993-036CE", "EPOCH": "2025-12-14T13:39:04.663008", "MEAN_MOTION": 14.50705907, "ECCENTRICITY": 0.00358826, "INCLINATION": 74.0131, "RA_OF_ASC_NODE": 52.1547, "ARG_OF_PERICENTER": 273.5795, "MEAN_ANOMALY": 86.1262, "EPHEMERIS_TYPE": 0, "CLASSIFICATION_TYPE": "U", "NORAD_CAT_ID": 33837, "ELEMENT_SET_NO": 999, "REV_AT_EPOCH": 88822, "BSTAR": 0.00031491903, "MEAN_MOTION_DOT": 1.219e-05, "MEAN_MOTION_DDOT": 0}, "tle": {"line1": "1 33837U 93036CE  25348.56880397  .00001219  00000+0  31492-3 0  9997", "line2": "2 33837  74.0131  52.1547 0035882 273.5795  86.1262 14.50705907888221"}}, "geometry": {"type": "Point", "coordinates": [61.199921583213225, 36.04790254314434]}}, {"type": "Feature", "properties": {"norad_id": 33838, "name": "COSMOS 2251 DEB", "group": "cosmos-2251-debris", "lat": -57.375344187970796, "lon": -10.032925155411464, "alt_km": 719.7960863780436, "timestamp": "2025-12-16T03:53:27.448033+00:00", "meta": {"OBJECT_NAME": "COSMOS 2251 DEB", "OBJECT_ID": "1993-036CF", "EPOCH": "2025-12-14T21:41:04.174656", "MEAN_MOTION": 14.48370745, "ECCENTRICITY": 0.00274567, "INCLINATION": 74.0363, "RA_OF_ASC_NODE": 145.7612, "ARG_OF_PERICENTER": 267.3376, "MEAN_ANOMALY": 254.0335, "EPHEMERIS_TYPE": 0, "CLASSIFICATION_TYPE": "U", "NORAD_CAT_ID": 33838, "ELEMENT_SET_NO": 999, "REV_AT_EPOCH": 88600, "BSTAR": 0.00038005045, "MEAN_MOTION_DOT": 1.401e-05, "MEAN_MOTION_DDOT": 0}, "tle": {"line1": "1 33838U 93036CF  25348.90352054  .00001401  00000+0  38005-3 0  9990", "line2": "2 33838  74.0363 145.7612 0027456 267.3376 254.0335 14.48370745886001"}}, "geometry": {"type": "Point", "coordinates": [-10.032925155411464, -57.375344187970796]}}, {"type": "Feature", "properties": {"norad_id": 33839, "name": "COSMOS 2251 DEB", "group": "cosmos-2251-debris", "lat": 5.790162441638616, "lon": -158.4325311053273, "alt_km": 645.9158888585816, "timestamp": "2025-12-16T03:53:27.448044+00:00", "meta": {"OBJECT_NAME": "COSMOS 2251 DEB", "OBJECT_ID": "1993-036CG", "EPOCH": "2025-12-15T09:00:00.501120", "MEAN_MOTION": 14.64426958, "ECCENTRICITY": 0.00851818, "INCLINATION": 74.0379, "RA_OF_ASC_NODE": 201.4163, "ARG_OF_PERICENTER": 312.8825, "MEAN_ANOMALY": 224.5369, "EPHEMERIS_TYPE": 0, "CLASSIFICATION_TYPE": "U", "NORAD_CAT_ID": 33839, "ELEMENT_SET_NO": 999, "REV_AT_EPOCH": 89618, "BSTAR": 0.00022820423, "MEAN_MOTION_DOT": 1.239e-05, "MEAN_MOTION_DDOT": 0}, "tle": {"line1": "1 33839U 93036CG  25349.37500580  .00001239  00000+0  22820-3 0  9999", "line2": "2 33839  74.0379 201.4163 0085181 312.8825 224.5369 14.64426958896189"}}, "geometry": {"type": "Point", "coordinates": [-158.4325311053273, 5.790162441638616]}}]}